{
  "type": "FeatureCollection",
  "features": [
    {
      "type": "Feature",
      "geometry": {
        "type": "Point",
        "coordinates": [
          102.74728,
          17.86511
        ]
      },
      "properties": {
        "station_name": "หนองคาย",
        "province": "หนองคาย",
        "temp": 29.8,
        "rainfall": 0.0,
        "rainfall_24hr": 0.0,
        "wind_speed": 7.4,
        "wind_direction_deg": 110.0,
        "wind_direction_label": "E",
        "date": "10/06/2026",
        "record_timestamp": "2026-10-06T03:18:09.722510"
      }
    },
    {
      "type": "Feature",
      "geometry": {
        "type": "Point",
        "coordinates": [
          102.03333,
          15.8
        ]
      },
      "properties": {
        "station_name": "ชัยภูมิ",
        "province": "ชัยภูมิ",
        "temp": 29.6,
        "rainfall": 0.0,
        "rainfall_24hr": 0.0,
        "wind_speed": 14.8,
        "wind_direction_deg": 70.0,
        "wind_direction_label": "E",
        "date": "10/06/2026",
        "record_timestamp": "2026-10-06T03:18:09.722510"
      }
    },
    {
      "type": "Feature",
      "geometry": {
        "type": "Point",
        "coordinates": [
          99.53583,
          14.0225
        ]
      },
      "properties": {
        "station_name": "กาญจนบุรี",
        "province": "กาญจนบุรี",
        "temp": 26.6,
        "rainfall": 0.1,
        "rainfall_24hr": 11.9,
        "wind_speed": 7.4,
        "wind_direction_deg": 210.0,
        "wind_direction_label": "SW",
        "date": "10/06/2026",
        "record_timestamp": "2026-10-06T03:18:09.722510"
      }
    },
    {
      "type": "Feature",
      "geometry": {
        "type": "Point",
        "coordinates": [
          99.1,
          10.33333
        ]
      },
      "properties": {
        "station_name": "สวี สกษ.",
        "province": "ชุมพร",
        "temp": 31.5,
        "rainfall": 0.0,
        "rainfall_24hr": 0.0,
        "wind_speed": 0.0,
        "wind_direction_deg": 0.0,
        "wind_direction_label": "N",
        "date": "10/06/2026",
        "record_timestamp": "2026-10-06T03:18:09.722510"
      }
    },
    {
      "type": "Feature",
      "geometry": {
        "type": "Point",
        "coordinates": [
          100.43333,
          6.91667
        ]
      },
      "properties": {
        "station_name": "หาดใหญ่",
        "province": "สงขลา",
        "temp": 28.7,
        "rainfall": 0.0,
        "rainfall_24hr": 0.6,
        "wind_speed": 5.6,
        "wind_direction_deg": 90.0,
        "wind_direction_label": "E",
        "date": "10/06/2026",
        "record_timestamp": "2026-10-06T03:18:09.722510"
      }
    },
    {
      "type": "Feature",
      "geometry": {
        "type": "Point",
        "coordinates": [
          101.73333,
          17.4
        ]
      },
      "properties": {
        "station_name": "เลย สกษ.",
        "province": "เลย",
        "temp": 24.5,
        "rainfall": 3.4,
        "rainfall_24hr": 33.8,
        "wind_speed": 0.0,
        "wind_direction_deg": 0.0,
        "wind_direction_label": "N",
        "date": "10/06/2026",
        "record_timestamp": "2026-10-06T03:18:09.722510"
      }
    },
    {
      "type": "Feature",
      "geometry": {
        "type": "Point",
        "coordinates": [
          103.74389,
          16.02
        ]
      },
      "properties": {
        "station_name": "ร้อยเอ็ด",
        "province": "ร้อยเอ็ด",
        "temp": 29.3,
        "rainfall": 0.0,
        "rainfall_24hr": 0.6,
        "wind_speed": 13.0,
        "wind_direction_deg": 80.0,
        "wind_direction_label": "E",
        "date": "10/06/2026",
        "record_timestamp": "2026-10-06T03:18:09.722510"
      }
    },
    {
      "type": "Feature",
      "geometry": {
        "type": "Point",
        "coordinates": [
          98.63639,
          14.74222
        ]
      },
      "properties": {
        "station_name": "ทองผาภูมิ",
        "province": "กาญจนบุรี",
        "temp": 28.5,
        "rainfall": 0.0,
        "rainfall_24hr": 0.0,
        "wind_speed": 7.4,
        "wind_direction_deg": 190.0,
        "wind_direction_label": "S",
        "date": "10/06/2026",
        "record_timestamp": "2026-10-06T03:18:09.722510"
      }
    },
    {
      "type": "Feature",
      "geometry": {
        "type": "Point",
        "coordinates": [
          98.61667,
          9.98333
        ]
      },
      "properties": {
        "station_name": "ระนอง",
        "province": "ระนอง",
        "temp": 32.5,
        "rainfall": 0.0,
        "rainfall_24hr": 0.0,
        "wind_speed": 5.6,
        "wind_direction_deg": 70.0,
        "wind_direction_label": "E",
        "date": "10/06/2026",
        "record_timestamp": "2026-10-06T03:18:09.722510"
      }
    },
    {
      "type": "Feature",
      "geometry": {
        "type": "Point",
        "coordinates": [
          100.08333,
          6.65
        ]
      },
      "properties": {
        "station_name": "สตูล",
        "province": "สตูล",
        "temp": 31.2,
        "rainfall": 0.0,
        "rainfall_24hr": 0.4,
        "wind_speed": 0.0,
        "wind_direction_deg": 0.0,
        "wind_direction_label": "N",
        "date": "10/06/2026",
        "record_timestamp": "2026-10-06T03:18:09.722510"
      }
    },
    {
      "type": "Feature",
      "geometry": {
        "type": "Point",
        "coordinates": [
          99.88139,
          19.96139
        ]
      },
      "properties": {
        "station_name": "เชียงราย",
        "province": "เชียงราย",
        "temp": 28.8,
        "rainfall": 0.0,
        "rainfall_24hr": 0.0,
        "wind_speed": 16.7,
        "wind_direction_deg": 50.0,
        "wind_direction_label": "NE",
        "date": "10/06/2026",
        "record_timestamp": "2026-10-06T03:18:09.722510"
      }
    },
    {
      "type": "Feature",
      "geometry": {
        "type": "Point",
        "coordinates": [
          101.15,
          16.43333
        ]
      },
      "properties": {
        "station_name": "เพชรบูรณ์",
        "province": "เพชรบูรณ์",
        "temp": 28.5,
        "rainfall": 0.0,
        "rainfall_24hr": 0.0,
        "wind_speed": 0.0,
        "wind_direction_deg": 0.0,
        "wind_direction_label": "N",
        "date": "10/06/2026",
        "record_timestamp": "2026-10-06T03:18:09.722510"
      }
    },
    {
      "type": "Feature",
      "geometry": {
        "type": "Point",
        "coordinates": [
          100.13889,
          14.47444
        ]
      },
      "properties": {
        "station_name": "สุพรรณบุรี",
        "province": "สุพรรณบุรี",
        "temp": 26.5,
        "rainfall": 0.2,
        "rainfall_24hr": 0.2,
        "wind_speed": 7.4,
        "wind_direction_deg": 10.0,
        "wind_direction_label": "N",
        "date": "10/06/2026",
        "record_timestamp": "2026-10-06T03:18:09.722510"
      }
    },
    {
      "type": "Feature",
      "geometry": {
        "type": "Point",
        "coordinates": [
          100.98333,
          13.36667
        ]
      },
      "properties": {
        "station_name": "ชลบุรี",
        "province": "ชลบุรี",
        "temp": 31.8,
        "rainfall": 0.0,
        "rainfall_24hr": 0.0,
        "wind_speed": 7.4,
        "wind_direction_deg": 140.0,
        "wind_direction_label": "SE",
        "date": "10/06/2026",
        "record_timestamp": "2026-10-06T03:18:09.722510"
      }
    },
    {
      "type": "Feature",
      "geometry": {
        "type": "Point",
        "coordinates": [
          100.16667,
          7.58333
        ]
      },
      "properties": {
        "station_name": "พัทลุง สกษ.",
        "province": "พัทลุง",
        "temp": 30.3,
        "rainfall": 0.0,
        "rainfall_24hr": 0.0,
        "wind_speed": 0.0,
        "wind_direction_deg": 0.0,
        "wind_direction_label": "N",
        "date": "10/06/2026",
        "record_timestamp": "2026-10-06T03:18:09.722510"
      }
    },
    {
      "type": "Feature",
      "geometry": {
        "type": "Point",
        "coordinates": [
          99.86167,
          17.16136
        ]
      },
      "properties": {
        "station_name": "ศรีสำโรง สกษ.",
        "province": "สุโขทัย",
        "temp": 24.6,
        "rainfall": 4.2,
        "rainfall_24hr": 6.6,
        "wind_speed": 0.0,
        "wind_direction_deg": 0.0,
        "wind_direction_label": "N",
        "date": "10/06/2026",
        "record_timestamp": "2026-10-06T03:18:09.722510"
      }
    },
    {
      "type": "Feature",
      "geometry": {
        "type": "Point",
        "coordinates": [
          104.86667,
          15.25
        ]
      },
      "properties": {
        "station_name": "อุบลราชธานี (ศูนย์ฯ)",
        "province": "อุบลราชธานี",
        "temp": 29.3,
        "rainfall": 0.0,
        "rainfall_24hr": 0.0,
        "wind_speed": 3.7,
        "wind_direction_deg": 30.0,
        "wind_direction_label": "NE",
        "date": "10/06/2026",
        "record_timestamp": "2026-10-06T03:18:09.722510"
      }
    },
    {
      "type": "Feature",
      "geometry": {
        "type": "Point",
        "coordinates": [
          100.56805,
          13.70694
        ]
      },
      "properties": {
        "station_name": "กรุงเทพฯ ท่าเรือคลองเตย",
        "province": "กรุงเทพมหานคร",
        "temp": 26.7,
        "rainfall": 0.3,
        "rainfall_24hr": 62.1,
        "wind_speed": 5.6,
        "wind_direction_deg": 90.0,
        "wind_direction_label": "E",
        "date": "10/06/2026",
        "record_timestamp": "2026-10-06T03:18:09.722510"
      }
    },
    {
      "type": "Feature",
      "geometry": {
        "type": "Point",
        "coordinates": [
          100.05,
          9.46667
        ]
      },
      "properties": {
        "station_name": "เกาะสมุย",
        "province": "สุราษฎร์ธานี",
        "temp": 31.6,
        "rainfall": 0.0,
        "rainfall_24hr": 0.0,
        "wind_speed": 5.6,
        "wind_direction_deg": 130.0,
        "wind_direction_label": "SE",
        "date": "10/06/2026",
        "record_timestamp": "2026-10-06T03:18:09.722510"
      }
    },
    {
      "type": "Feature",
      "geometry": {
        "type": "Point",
        "coordinates": [
          99.78278,
          19.87083
        ]
      },
      "properties": {
        "station_name": "เชียงราย สกษ.",
        "province": "เชียงราย",
        "temp": 25.8,
        "rainfall": 0.0,
        "rainfall_24hr": 0.3,
        "wind_speed": 18.5,
        "wind_direction_deg": 40.0,
        "wind_direction_label": "NE",
        "date": "10/06/2026",
        "record_timestamp": "2026-10-06T03:18:09.722510"
      }
    },
    {
      "type": "Feature",
      "geometry": {
        "type": "Point",
        "coordinates": [
          101.24944,
          16.77361
        ]
      },
      "properties": {
        "station_name": "หล่มสัก",
        "province": "เพชรบูรณ์",
        "temp": 28.4,
        "rainfall": 0.0,
        "rainfall_24hr": 0.0,
        "wind_speed": 11.1,
        "wind_direction_deg": 40.0,
        "wind_direction_label": "NE",
        "date": "10/06/2026",
        "record_timestamp": "2026-10-06T03:18:09.722510"
      }
    },
    {
      "type": "Feature",
      "geometry": {
        "type": "Point",
        "coordinates": [
          99.86472,
          14.30361
        ]
      },
      "properties": {
        "station_name": "อู่ทอง สกษ.",
        "province": "สุพรรณบุรี",
        "temp": 26.8,
        "rainfall": 0.0,
        "rainfall_24hr": 0.0,
        "wind_speed": 0.0,
        "wind_direction_deg": 0.0,
        "wind_direction_label": "N",
        "date": "10/06/2026",
        "record_timestamp": "2026-10-06T03:18:09.722510"
      }
    },
    {
      "type": "Feature",
      "geometry": {
        "type": "Point",
        "coordinates": [
          100.06056,
          12.99944
        ]
      },
      "properties": {
        "station_name": "เพชรบุรี",
        "province": "เพชรบุรี",
        "temp": 26.4,
        "rainfall": 0.2,
        "rainfall_24hr": 62.4,
        "wind_speed": 0.0,
        "wind_direction_deg": 0.0,
        "wind_direction_label": "N",
        "date": "10/06/2026",
        "record_timestamp": "2026-10-06T03:18:09.722510"
      }
    },
    {
      "type": "Feature",
      "geometry": {
        "type": "Point",
        "coordinates": [
          98.25222,
          8.68417
        ]
      },
      "properties": {
        "station_name": "ตะกั่วป่า",
        "province": "พังงา",
        "temp": 30.2,
        "rainfall": 0.0,
        "rainfall_24hr": 36.2,
        "wind_speed": 5.6,
        "wind_direction_deg": 10.0,
        "wind_direction_label": "N",
        "date": "10/06/2026",
        "record_timestamp": "2026-10-06T03:18:09.722510"
      }
    },
    {
      "type": "Feature",
      "geometry": {
        "type": "Point",
        "coordinates": [
          102.8,
          17.38333
        ]
      },
      "properties": {
        "station_name": "อุดรธานี",
        "province": "อุดรธานี",
        "temp": 27.5,
        "rainfall": 0.0,
        "rainfall_24hr": 0.0,
        "wind_speed": 9.3,
        "wind_direction_deg": 70.0,
        "wind_direction_label": "E",
        "date": "10/06/2026",
        "record_timestamp": "2026-10-06T03:18:09.722510"
      }
    },
    {
      "type": "Feature",
      "geometry": {
        "type": "Point",
        "coordinates": [
          105.0235,
          15.23914
        ]
      },
      "properties": {
        "station_name": "อุบลราชธานี สกษ.",
        "province": "อุบลราชธานี",
        "temp": 31.5,
        "rainfall": 0.0,
        "rainfall_24hr": 0.0,
        "wind_speed": 7.4,
        "wind_direction_deg": 10.0,
        "wind_direction_label": "N",
        "date": "10/06/2026",
        "record_timestamp": "2026-10-06T03:18:09.722510"
      }
    },
    {
      "type": "Feature",
      "geometry": {
        "type": "Point",
        "coordinates": [
          99.97,
          14.01167
        ]
      },
      "properties": {
        "station_name": "นครปฐม",
        "province": "นครปฐม",
        "temp": 26.5,
        "rainfall": 0.8,
        "rainfall_24hr": 1.1,
        "wind_speed": 7.4,
        "wind_direction_deg": 300.0,
        "wind_direction_label": "NW",
        "date": "10/06/2026",
        "record_timestamp": "2026-10-06T03:18:09.722510"
      }
    },
    {
      "type": "Feature",
      "geometry": {
        "type": "Point",
        "coordinates": [
          99.15194,
          9.13556
        ]
      },
      "properties": {
        "station_name": "สุราษฎร์ธานี",
        "province": "สุราษฎร์ธานี",
        "temp": 29.9,
        "rainfall": 0.0,
        "rainfall_24hr": 7.0,
        "wind_speed": 9.3,
        "wind_direction_deg": 20.0,
        "wind_direction_label": "N",
        "date": "10/06/2026",
        "record_timestamp": "2026-10-06T03:18:09.722510"
      }
    },
    {
      "type": "Feature",
      "geometry": {
        "type": "Point",
        "coordinates": [
          101.81667,
          6.41667
        ]
      },
      "properties": {
        "station_name": "นราธิวาส",
        "province": "นราธิวาส",
        "temp": 28.3,
        "rainfall": 0.0,
        "rainfall_24hr": 44.6,
        "wind_speed": 11.1,
        "wind_direction_deg": 150.0,
        "wind_direction_label": "SE",
        "date": "10/06/2026",
        "record_timestamp": "2026-10-06T03:18:09.722510"
      }
    },
    {
      "type": "Feature",
      "geometry": {
        "type": "Point",
        "coordinates": [
          99.9,
          19.13333
        ]
      },
      "properties": {
        "station_name": "พะเยา",
        "province": "พะเยา",
        "temp": 25.0,
        "rainfall": 0.0,
        "rainfall_24hr": 24.0,
        "wind_speed": 0.0,
        "wind_direction_deg": 0.0,
        "wind_direction_label": "N",
        "date": "10/06/2026",
        "record_timestamp": "2026-10-06T03:18:09.722510"
      }
    },
    {
      "type": "Feature",
      "geometry": {
        "type": "Point",
        "coordinates": [
          102.78972,
          16.46111
        ]
      },
      "properties": {
        "station_name": "ขอนแก่น",
        "province": "ขอนแก่น",
        "temp": 27.8,
        "rainfall": 0.0,
        "rainfall_24hr": 0.0,
        "wind_speed": 0.0,
        "wind_direction_deg": 0.0,
        "wind_direction_label": "N",
        "date": "10/06/2026",
        "record_timestamp": "2026-10-06T03:18:09.722510"
      }
    },
    {
      "type": "Feature",
      "geometry": {
        "type": "Point",
        "coordinates": [
          100.76167,
          13.51667
        ]
      },
      "properties": {
        "station_name": "สมุทรปราการ สกษ.",
        "province": "สมุทรปราการ",
        "temp": 28.5,
        "rainfall": 0.1,
        "rainfall_24hr": 9.0,
        "wind_speed": 7.4,
        "wind_direction_deg": 130.0,
        "wind_direction_label": "SE",
        "date": "10/06/2026",
        "record_timestamp": "2026-10-06T03:18:09.722510"
      }
    },
    {
      "type": "Feature",
      "geometry": {
        "type": "Point",
        "coordinates": [
          101.34361,
          12.63222
        ]
      },
      "properties": {
        "station_name": "ระยอง",
        "province": "ระยอง",
        "temp": 29.8,
        "rainfall": 0.0,
        "rainfall_24hr": 0.0,
        "wind_speed": 0.0,
        "wind_direction_deg": 0.0,
        "wind_direction_label": "N",
        "date": "10/06/2026",
        "record_timestamp": "2026-10-06T03:18:09.722510"
      }
    },
    {
      "type": "Feature",
      "geometry": {
        "type": "Point",
        "coordinates": [
          98.31444,
          8.145
        ]
      },
      "properties": {
        "station_name": "ภูเก็ต (ศูนย์ฯ)",
        "province": "ภูเก็ต",
        "temp": 31.4,
        "rainfall": 0.0,
        "rainfall_24hr": 0.0,
        "wind_speed": 3.7,
        "wind_direction_deg": 290.0,
        "wind_direction_label": "W",
        "date": "10/06/2026",
        "record_timestamp": "2026-10-06T03:18:09.722510"
      }
    },
    {
      "type": "Feature",
      "geometry": {
        "type": "Point",
        "coordinates": [
          100.88353,
          19.41194
        ]
      },
      "properties": {
        "station_name": "ทุ่งช้าง",
        "province": "น่าน",
        "temp": 28.3,
        "rainfall": 0.0,
        "rainfall_24hr": 1.6,
        "wind_speed": 7.4,
        "wind_direction_deg": 300.0,
        "wind_direction_label": "NW",
        "date": "10/06/2026",
        "record_timestamp": "2026-10-06T03:18:09.722510"
      }
    },
    {
      "type": "Feature",
      "geometry": {
        "type": "Point",
        "coordinates": [
          100.13236,
          15.67183
        ]
      },
      "properties": {
        "station_name": "นครสวรรค์",
        "province": "นครสวรรค์",
        "temp": 24.9,
        "rainfall": 9.4,
        "rainfall_24hr": 16.0,
        "wind_speed": 0.0,
        "wind_direction_deg": 0.0,
        "wind_direction_label": "N",
        "date": "10/06/2026",
        "record_timestamp": "2026-10-06T03:18:09.722510"
      }
    },
    {
      "type": "Feature",
      "geometry": {
        "type": "Point",
        "coordinates": [
          103.45,
          14.88333
        ]
      },
      "properties": {
        "station_name": "สุรินทร์ สกษ.",
        "province": "สุรินทร์",
        "temp": 27.3,
        "rainfall": 0.0,
        "rainfall_24hr": 0.0,
        "wind_speed": 7.4,
        "wind_direction_deg": 80.0,
        "wind_direction_label": "E",
        "date": "10/06/2026",
        "record_timestamp": "2026-10-06T03:18:09.722510"
      }
    },
    {
      "type": "Feature",
      "geometry": {
        "type": "Point",
        "coordinates": [
          99.18847,
          10.49875
        ]
      },
      "properties": {
        "station_name": "ชุมพร",
        "province": "ชุมพร",
        "temp": 31.2,
        "rainfall": 0.0,
        "rainfall_24hr": 4.8,
        "wind_speed": 3.7,
        "wind_direction_deg": 340.0,
        "wind_direction_label": "N",
        "date": "10/06/2026",
        "record_timestamp": "2026-10-06T03:18:09.722510"
      }
    },
    {
      "type": "Feature",
      "geometry": {
        "type": "Point",
        "coordinates": [
          100.39056,
          6.79806
        ]
      },
      "properties": {
        "station_name": "สะเดา",
        "province": "สงขลา",
        "temp": 29.5,
        "rainfall": 0.0,
        "rainfall_24hr": 0.0,
        "wind_speed": 1.9,
        "wind_direction_deg": 180.0,
        "wind_direction_label": "S",
        "date": "10/06/2026",
        "record_timestamp": "2026-10-06T03:18:09.722510"
      }
    },
    {
      "type": "Feature",
      "geometry": {
        "type": "Point",
        "coordinates": [
          99.51667,
          18.28333
        ]
      },
      "properties": {
        "station_name": "ลำปาง",
        "province": "ลำปาง",
        "temp": 27.0,
        "rainfall": 0.0,
        "rainfall_24hr": 2.5,
        "wind_speed": 0.0,
        "wind_direction_deg": 0.0,
        "wind_direction_label": "N",
        "date": "10/06/2026",
        "record_timestamp": "2026-10-06T03:18:09.722510"
      }
    },
    {
      "type": "Feature",
      "geometry": {
        "type": "Point",
        "coordinates": [
          104.72889,
          16.54139
        ]
      },
      "properties": {
        "station_name": "มุกดาหาร",
        "province": "มุกดาหาร",
        "temp": 30.3,
        "rainfall": 0.0,
        "rainfall_24hr": 0.0,
        "wind_speed": 16.7,
        "wind_direction_deg": 60.0,
        "wind_direction_label": "NE",
        "date": "10/06/2026",
        "record_timestamp": "2026-10-06T03:18:09.722510"
      }
    },
    {
      "type": "Feature",
      "geometry": {
        "type": "Point",
        "coordinates": [
          100.7675,
          13.68639
        ]
      },
      "properties": {
        "station_name": "สนามบินสุวรรณภูมิ",
        "province": "สมุทรปราการ",
        "temp": 25.8,
        "rainfall": 0.0,
        "rainfall_24hr": 15.8,
        "wind_speed": 31.5,
        "wind_direction_deg": 170.0,
        "wind_direction_label": "S",
        "date": "10/06/2026",
        "record_timestamp": "2026-10-06T03:18:09.722510"
      }
    },
    {
      "type": "Feature",
      "geometry": {
        "type": "Point",
        "coordinates": [
          102.11333,
          12.61667
        ]
      },
      "properties": {
        "station_name": "จันทบุรี",
        "province": "จันทบุรี",
        "temp": 29.7,
        "rainfall": 0.0,
        "rainfall_24hr": 0.0,
        "wind_speed": 0.0,
        "wind_direction_deg": 0.0,
        "wind_direction_label": "N",
        "date": "10/06/2026",
        "record_timestamp": "2026-10-06T03:18:09.722510"
      }
    },
    {
      "type": "Feature",
      "geometry": {
        "type": "Point",
        "coordinates": [
          98.97528,
          8.10361
        ]
      },
      "properties": {
        "station_name": "กระบี่",
        "province": "กระบี่",
        "temp": 30.1,
        "rainfall": 0.0,
        "rainfall_24hr": 16.0,
        "wind_speed": 0.0,
        "wind_direction_deg": 0.0,
        "wind_direction_label": "N",
        "date": "10/06/2026",
        "record_timestamp": "2026-10-06T03:18:09.722510"
      }
    },
    {
      "type": "Feature",
      "geometry": {
        "type": "Point",
        "coordinates": [
          97.97578,
          19.29897
        ]
      },
      "properties": {
        "station_name": "แม่ฮ่องสอน",
        "province": "แม่ฮ่องสอน",
        "temp": 28.6,
        "rainfall": 0.0,
        "rainfall_24hr": 10.6,
        "wind_speed": 0.0,
        "wind_direction_deg": 0.0,
        "wind_direction_label": "N",
        "date": "10/06/2026",
        "record_timestamp": "2026-10-06T03:18:09.722510"
      }
    },
    {
      "type": "Feature",
      "geometry": {
        "type": "Point",
        "coordinates": [
          98.55083,
          16.65917
        ]
      },
      "properties": {
        "station_name": "แม่สอด",
        "province": "ตาก",
        "temp": 29.0,
        "rainfall": 0.0,
        "rainfall_24hr": 31.6,
        "wind_speed": 5.6,
        "wind_direction_deg": 330.0,
        "wind_direction_label": "NW",
        "date": "10/06/2026",
        "record_timestamp": "2026-10-06T03:18:09.722510"
      }
    },
    {
      "type": "Feature",
      "geometry": {
        "type": "Point",
        "coordinates": [
          101.45833,
          13.51556
        ]
      },
      "properties": {
        "station_name": "ฉะเชิงเทรา",
        "province": "ฉะเชิงเทรา",
        "temp": 27.5,
        "rainfall": 0.0,
        "rainfall_24hr": 4.0,
        "wind_speed": 3.7,
        "wind_direction_deg": 170.0,
        "wind_direction_label": "S",
        "date": "10/06/2026",
        "record_timestamp": "2026-10-06T03:18:09.722510"
      }
    },
    {
      "type": "Feature",
      "geometry": {
        "type": "Point",
        "coordinates": [
          100.605,
          13.91917
        ]
      },
      "properties": {
        "station_name": "สนามบินดอนเมือง",
        "province": "กรุงเทพมหานคร",
        "temp": 26.9,
        "rainfall": 0.0,
        "rainfall_24hr": 53.6,
        "wind_speed": 13.0,
        "wind_direction_deg": 300.0,
        "wind_direction_label": "NW",
        "date": "10/06/2026",
        "record_timestamp": "2026-10-06T03:18:09.722510"
      }
    },
    {
      "type": "Feature",
      "geometry": {
        "type": "Point",
        "coordinates": [
          99.50667,
          8.42472
        ]
      },
      "properties": {
        "station_name": "ฉวาง",
        "province": "นครศรีธรรมราช",
        "temp": 28.8,
        "rainfall": 0.0,
        "rainfall_24hr": 10.6,
        "wind_speed": 0.0,
        "wind_direction_deg": 0.0,
        "wind_direction_label": "N",
        "date": "10/06/2026",
        "record_timestamp": "2026-10-06T03:18:09.722510"
      }
    },
    {
      "type": "Feature",
      "geometry": {
        "type": "Point",
        "coordinates": [
          99.14333,
          16.87833
        ]
      },
      "properties": {
        "station_name": "ตาก",
        "province": "ตาก",
        "temp": 28.7,
        "rainfall": 0.0,
        "rainfall_24hr": 42.6,
        "wind_speed": 3.7,
        "wind_direction_deg": 300.0,
        "wind_direction_label": "NW",
        "date": "10/06/2026",
        "record_timestamp": "2026-10-06T03:18:09.722510"
      }
    },
    {
      "type": "Feature",
      "geometry": {
        "type": "Point",
        "coordinates": [
          100.61667,
          14.1
        ]
      },
      "properties": {
        "station_name": "ปทุมธานี สกษ.",
        "province": "ปทุมธานี",
        "temp": 26.0,
        "rainfall": 25.8,
        "rainfall_24hr": 37.0,
        "wind_speed": 1.9,
        "wind_direction_deg": 190.0,
        "wind_direction_label": "S",
        "date": "10/06/2026",
        "record_timestamp": "2026-10-06T03:18:09.722510"
      }
    },
    {
      "type": "Feature",
      "geometry": {
        "type": "Point",
        "coordinates": [
          100.60611,
          13.66639
        ]
      },
      "properties": {
        "station_name": "กรุงเทพฯ บางนา สกษ.",
        "province": "กรุงเทพมหานคร",
        "temp": 29.4,
        "rainfall": 0.0,
        "rainfall_24hr": 19.6,
        "wind_speed": 9.3,
        "wind_direction_deg": 320.0,
        "wind_direction_label": "NW",
        "date": "10/06/2026",
        "record_timestamp": "2026-10-06T03:18:09.722510"
      }
    },
    {
      "type": "Feature",
      "geometry": {
        "type": "Point",
        "coordinates": [
          99.25825,
          8.57022
        ]
      },
      "properties": {
        "station_name": "พระแสง สอท.",
        "province": "สุราษฎร์ธานี",
        "temp": 29.6,
        "rainfall": 0.0,
        "rainfall_24hr": 1.0,
        "wind_speed": 3.7,
        "wind_direction_deg": 170.0,
        "wind_direction_label": "S",
        "date": "10/06/2026",
        "record_timestamp": "2026-10-06T03:18:09.722510"
      }
    },
    {
      "type": "Feature",
      "geometry": {
        "type": "Point",
        "coordinates": [
          99.24475,
          17.63661
        ]
      },
      "properties": {
        "station_name": "เถิน",
        "province": "ลำปาง",
        "temp": 28.0,
        "rainfall": 0.0,
        "rainfall_24hr": 16.6,
        "wind_speed": 1.9,
        "wind_direction_deg": 140.0,
        "wind_direction_label": "SE",
        "date": "10/06/2026",
        "record_timestamp": "2026-10-06T03:18:09.722510"
      }
    },
    {
      "type": "Feature",
      "geometry": {
        "type": "Point",
        "coordinates": [
          104.61805,
          15.90375
        ]
      },
      "properties": {
        "station_name": "อำนาจเจริญ",
        "province": "อำนาจเจริญ",
        "temp": 28.2,
        "rainfall": 0.0,
        "rainfall_24hr": 0.0,
        "wind_speed": 9.3,
        "wind_direction_deg": 40.0,
        "wind_direction_label": "NE",
        "date": "10/06/2026",
        "record_timestamp": "2026-10-06T03:18:09.722510"
      }
    },
    {
      "type": "Feature",
      "geometry": {
        "type": "Point",
        "coordinates": [
          102.16861,
          14.71889
        ]
      },
      "properties": {
        "station_name": "โชคชัย",
        "province": "นครราชสีมา",
        "temp": 28.0,
        "rainfall": 0.0,
        "rainfall_24hr": 0.0,
        "wind_speed": 7.4,
        "wind_direction_deg": 120.0,
        "wind_direction_label": "SE",
        "date": "10/06/2026",
        "record_timestamp": "2026-10-06T03:18:09.722510"
      }
    },
    {
      "type": "Feature",
      "geometry": {
        "type": "Point",
        "coordinates": [
          99.9625,
          12.58611
        ]
      },
      "properties": {
        "station_name": "หัวหิน",
        "province": "ประจวบคีรีขันธ์",
        "temp": 28.4,
        "rainfall": 0.0,
        "rainfall_24hr": 0.0,
        "wind_speed": 0.0,
        "wind_direction_deg": 0.0,
        "wind_direction_label": "N",
        "date": "10/06/2026",
        "record_timestamp": "2026-10-06T03:18:09.722510"
      }
    },
    {
      "type": "Feature",
      "geometry": {
        "type": "Point",
        "coordinates": [
          99.61667,
          7.51667
        ]
      },
      "properties": {
        "station_name": "ตรัง",
        "province": "ตรัง",
        "temp": 29.8,
        "rainfall": 0.0,
        "rainfall_24hr": 0.0,
        "wind_speed": 0.0,
        "wind_direction_deg": 0.0,
        "wind_direction_label": "N",
        "date": "10/06/2026",
        "record_timestamp": "2026-10-06T03:18:09.722510"
      }
    }
  ]
}