{
  "type": "FeatureCollection",
  "features": [
    {
      "type": "Feature",
      "geometry": {
        "type": "Point",
        "coordinates": [
          99.04833,
          19.93139
        ]
      },
      "properties": {
        "date": "09/08/2026",
        "metric": "min_temp",
        "value": 19.6,
        "station": "ดอยอ่างขาง",
        "province": "เชียงใหม่"
      }
    },
    {
      "type": "Feature",
      "geometry": {
        "type": "Point",
        "coordinates": [
          100.16667,
          7.58333
        ]
      },
      "properties": {
        "date": "09/08/2026",
        "metric": "max_temp",
        "value": 36.0,
        "station": "พัทลุง สกษ.",
        "province": "พัทลุง"
      }
    },
    {
      "type": "Feature",
      "geometry": {
        "type": "Point",
        "coordinates": [
          104.21436,
          15.79494
        ]
      },
      "properties": {
        "date": "09/08/2026",
        "metric": "max_rainfall_24hr",
        "value": 109.7,
        "station": "ยโสธร",
        "province": "ตาดทอง"
      }
    },
    {
      "type": "Feature",
      "geometry": {
        "type": "Point",
        "coordinates": [
          99.04833,
          19.93139
        ]
      },
      "properties": {
        "date": "09/09/2026",
        "metric": "min_temp",
        "value": 18.0,
        "station": "ดอยอ่างขาง",
        "province": "เชียงใหม่"
      }
    },
    {
      "type": "Feature",
      "geometry": {
        "type": "Point",
        "coordinates": [
          99.14333,
          16.87833
        ]
      },
      "properties": {
        "date": "09/09/2026",
        "metric": "max_temp",
        "value": 34.7,
        "station": "ตาก",
        "province": "ตาก"
      }
    },
    {
      "type": "Feature",
      "geometry": {
        "type": "Point",
        "coordinates": [
          103.51672,
          18.41361
        ]
      },
      "properties": {
        "date": "09/09/2026",
        "metric": "max_rainfall_24hr",
        "value": 117.2,
        "station": "บึงกาฬ",
        "province": "บึงกาฬ"
      }
    },
    {
      "type": "Feature",
      "geometry": {
        "type": "Point",
        "coordinates": [
          99.04833,
          19.93139
        ]
      },
      "properties": {
        "date": "09/10/2026",
        "metric": "min_temp",
        "value": 18.2,
        "station": "ดอยอ่างขาง",
        "province": "เชียงใหม่"
      }
    },
    {
      "type": "Feature",
      "geometry": {
        "type": "Point",
        "coordinates": [
          102.74728,
          17.86511
        ]
      },
      "properties": {
        "date": "09/10/2026",
        "metric": "max_temp",
        "value": 34.2,
        "station": "หนองคาย",
        "province": "หนองคาย"
      }
    },
    {
      "type": "Feature",
      "geometry": {
        "type": "Point",
        "coordinates": [
          104.05,
          15.0
        ]
      },
      "properties": {
        "date": "09/10/2026",
        "metric": "max_rainfall_24hr",
        "value": 148.3,
        "station": "ศรีสะเกษ",
        "province": "ศรีสะเกษ"
      }
    },
    {
      "type": "Feature",
      "geometry": {
        "type": "Point",
        "coordinates": [
          99.04833,
          19.93139
        ]
      },
      "properties": {
        "date": "09/11/2026",
        "metric": "min_temp",
        "value": 16.2,
        "station": "ดอยอ่างขาง",
        "province": "เชียงใหม่"
      }
    },
    {
      "type": "Feature",
      "geometry": {
        "type": "Point",
        "coordinates": [
          99.14333,
          16.87833
        ]
      },
      "properties": {
        "date": "09/11/2026",
        "metric": "max_temp",
        "value": 36.8,
        "station": "ตาก",
        "province": "ตาก"
      }
    },
    {
      "type": "Feature",
      "geometry": {
        "type": "Point",
        "coordinates": [
          104.05,
          15.0
        ]
      },
      "properties": {
        "date": "09/11/2026",
        "metric": "max_rainfall_24hr",
        "value": 141.3,
        "station": "ศรีสะเกษ",
        "province": "ศรีสะเกษ"
      }
    },
    {
      "type": "Feature",
      "geometry": {
        "type": "Point",
        "coordinates": [
          99.04833,
          19.93139
        ]
      },
      "properties": {
        "date": "09/12/2026",
        "metric": "min_temp",
        "value": 17.1,
        "station": "ดอยอ่างขาง",
        "province": "เชียงใหม่"
      }
    },
    {
      "type": "Feature",
      "geometry": {
        "type": "Point",
        "coordinates": [
          99.14333,
          16.87833
        ]
      },
      "properties": {
        "date": "09/12/2026",
        "metric": "max_temp",
        "value": 38.0,
        "station": "ตาก",
        "province": "ตาก"
      }
    },
    {
      "type": "Feature",
      "geometry": {
        "type": "Point",
        "coordinates": [
          100.0,
          8.35931
        ]
      },
      "properties": {
        "date": "09/12/2026",
        "metric": "max_rainfall_24hr",
        "value": 167.8,
        "station": "นครศรีธรรมราช สกษ.",
        "province": "นครศรีธรรมราช"
      }
    },
    {
      "type": "Feature",
      "geometry": {
        "type": "Point",
        "coordinates": [
          99.04833,
          19.93139
        ]
      },
      "properties": {
        "date": "09/13/2026",
        "metric": "min_temp",
        "value": 17.5,
        "station": "ดอยอ่างขาง",
        "province": "เชียงใหม่"
      }
    },
    {
      "type": "Feature",
      "geometry": {
        "type": "Point",
        "coordinates": [
          101.28333,
          6.51667
        ]
      },
      "properties": {
        "date": "09/13/2026",
        "metric": "max_temp",
        "value": 36.1,
        "station": "ยะลา สกษ.",
        "province": "ยะลา"
      }
    },
    {
      "type": "Feature",
      "geometry": {
        "type": "Point",
        "coordinates": [
          100.0,
          8.35931
        ]
      },
      "properties": {
        "date": "09/13/2026",
        "metric": "max_rainfall_24hr",
        "value": 66.6,
        "station": "นครศรีธรรมราช สกษ.",
        "province": "นครศรีธรรมราช"
      }
    },
    {
      "type": "Feature",
      "geometry": {
        "type": "Point",
        "coordinates": [
          101.38333,
          14.21667
        ]
      },
      "properties": {
        "date": "09/14/2026",
        "metric": "min_temp",
        "value": 19.1,
        "station": "นครนายก",
        "province": "นครนายก"
      }
    },
    {
      "type": "Feature",
      "geometry": {
        "type": "Point",
        "coordinates": [
          97.97578,
          19.29897
        ]
      },
      "properties": {
        "date": "09/14/2026",
        "metric": "max_temp",
        "value": 36.0,
        "station": "แม่ฮ่องสอน",
        "province": "แม่ฮ่องสอน"
      }
    },
    {
      "type": "Feature",
      "geometry": {
        "type": "Point",
        "coordinates": [
          104.72889,
          16.54139
        ]
      },
      "properties": {
        "date": "09/14/2026",
        "metric": "max_rainfall_24hr",
        "value": 70.2,
        "station": "มุกดาหาร",
        "province": "มุกดาหาร"
      }
    },
    {
      "type": "Feature",
      "geometry": {
        "type": "Point",
        "coordinates": [
          99.04833,
          19.93139
        ]
      },
      "properties": {
        "date": "09/15/2026",
        "metric": "min_temp",
        "value": 18.8,
        "station": "ดอยอ่างขาง",
        "province": "เชียงใหม่"
      }
    },
    {
      "type": "Feature",
      "geometry": {
        "type": "Point",
        "coordinates": [
          97.97578,
          19.29897
        ]
      },
      "properties": {
        "date": "09/15/2026",
        "metric": "max_temp",
        "value": 34.5,
        "station": "แม่ฮ่องสอน",
        "province": "แม่ฮ่องสอน"
      }
    },
    {
      "type": "Feature",
      "geometry": {
        "type": "Point",
        "coordinates": [
          101.38333,
          14.21667
        ]
      },
      "properties": {
        "date": "09/15/2026",
        "metric": "max_rainfall_24hr",
        "value": 130.2,
        "station": "นครนายก",
        "province": "นครนายก"
      }
    },
    {
      "type": "Feature",
      "geometry": {
        "type": "Point",
        "coordinates": [
          99.04833,
          19.93139
        ]
      },
      "properties": {
        "date": "09/16/2026",
        "metric": "min_temp",
        "value": 18.2,
        "station": "ดอยอ่างขาง",
        "province": "เชียงใหม่"
      }
    },
    {
      "type": "Feature",
      "geometry": {
        "type": "Point",
        "coordinates": [
          99.86472,
          14.30361
        ]
      },
      "properties": {
        "date": "09/16/2026",
        "metric": "max_temp",
        "value": 35.0,
        "station": "อู่ทอง สกษ.",
        "province": "สุพรรณบุรี"
      }
    },
    {
      "type": "Feature",
      "geometry": {
        "type": "Point",
        "coordinates": [
          102.74728,
          17.86511
        ]
      },
      "properties": {
        "date": "09/16/2026",
        "metric": "max_rainfall_24hr",
        "value": 115.1,
        "station": "หนองคาย",
        "province": "หนองคาย"
      }
    },
    {
      "type": "Feature",
      "geometry": {
        "type": "Point",
        "coordinates": [
          99.04833,
          19.93139
        ]
      },
      "properties": {
        "date": "09/17/2026",
        "metric": "min_temp",
        "value": 18.5,
        "station": "ดอยอ่างขาง",
        "province": "เชียงใหม่"
      }
    },
    {
      "type": "Feature",
      "geometry": {
        "type": "Point",
        "coordinates": [
          97.93333,
          18.16667
        ]
      },
      "properties": {
        "date": "09/17/2026",
        "metric": "max_temp",
        "value": 35.5,
        "station": "แม่สะเรียง",
        "province": "แม่ฮ่องสอน"
      }
    },
    {
      "type": "Feature",
      "geometry": {
        "type": "Point",
        "coordinates": [
          99.94722,
          8.53778
        ]
      },
      "properties": {
        "date": "09/17/2026",
        "metric": "max_rainfall_24hr",
        "value": 88.0,
        "station": "นครศรีธรรมราช",
        "province": "นครศรีธรรมราช"
      }
    },
    {
      "type": "Feature",
      "geometry": {
        "type": "Point",
        "coordinates": [
          99.04833,
          19.93139
        ]
      },
      "properties": {
        "date": "09/18/2026",
        "metric": "min_temp",
        "value": 17.6,
        "station": "ดอยอ่างขาง",
        "province": "เชียงใหม่"
      }
    },
    {
      "type": "Feature",
      "geometry": {
        "type": "Point",
        "coordinates": [
          101.18736,
          15.26667
        ]
      },
      "properties": {
        "date": "09/18/2026",
        "metric": "max_temp",
        "value": 35.4,
        "station": "บัวชุม",
        "province": "ลพบุรี"
      }
    },
    {
      "type": "Feature",
      "geometry": {
        "type": "Point",
        "coordinates": [
          98.61667,
          9.98333
        ]
      },
      "properties": {
        "date": "09/18/2026",
        "metric": "max_rainfall_24hr",
        "value": 226.8,
        "station": "ระนอง",
        "province": "ระนอง"
      }
    },
    {
      "type": "Feature",
      "geometry": {
        "type": "Point",
        "coordinates": [
          99.04833,
          19.93139
        ]
      },
      "properties": {
        "date": "09/19/2026",
        "metric": "min_temp",
        "value": 17.0,
        "station": "ดอยอ่างขาง",
        "province": "เชียงใหม่"
      }
    },
    {
      "type": "Feature",
      "geometry": {
        "type": "Point",
        "coordinates": [
          100.13236,
          15.67183
        ]
      },
      "properties": {
        "date": "09/19/2026",
        "metric": "max_temp",
        "value": 34.9,
        "station": "นครสวรรค์",
        "province": "นครสวรรค์"
      }
    },
    {
      "type": "Feature",
      "geometry": {
        "type": "Point",
        "coordinates": [
          98.61667,
          9.98333
        ]
      },
      "properties": {
        "date": "09/19/2026",
        "metric": "max_rainfall_24hr",
        "value": 197.4,
        "station": "ระนอง",
        "province": "ระนอง"
      }
    },
    {
      "type": "Feature",
      "geometry": {
        "type": "Point",
        "coordinates": [
          99.04833,
          19.93139
        ]
      },
      "properties": {
        "date": "09/20/2026",
        "metric": "min_temp",
        "value": 18.0,
        "station": "ดอยอ่างขาง",
        "province": "เชียงใหม่"
      }
    },
    {
      "type": "Feature",
      "geometry": {
        "type": "Point",
        "coordinates": [
          102.74728,
          17.86511
        ]
      },
      "properties": {
        "date": "09/20/2026",
        "metric": "max_temp",
        "value": 34.8,
        "station": "หนองคาย",
        "province": "หนองคาย"
      }
    },
    {
      "type": "Feature",
      "geometry": {
        "type": "Point",
        "coordinates": [
          99.52697,
          16.48681
        ]
      },
      "properties": {
        "date": "09/20/2026",
        "metric": "max_rainfall_24hr",
        "value": 139.7,
        "station": "กำแพงเพชร",
        "province": "กำแพงเพชร"
      }
    },
    {
      "type": "Feature",
      "geometry": {
        "type": "Point",
        "coordinates": [
          99.04833,
          19.93139
        ]
      },
      "properties": {
        "date": "09/21/2026",
        "metric": "min_temp",
        "value": 17.8,
        "station": "ดอยอ่างขาง",
        "province": "เชียงใหม่"
      }
    },
    {
      "type": "Feature",
      "geometry": {
        "type": "Point",
        "coordinates": [
          99.18847,
          10.49875
        ]
      },
      "properties": {
        "date": "09/21/2026",
        "metric": "max_temp",
        "value": 33.5,
        "station": "ชุมพร",
        "province": "ชุมพร"
      }
    },
    {
      "type": "Feature",
      "geometry": {
        "type": "Point",
        "coordinates": [
          100.2793,
          16.79481
        ]
      },
      "properties": {
        "date": "09/21/2026",
        "metric": "max_rainfall_24hr",
        "value": 136.8,
        "station": "พิษณุโลก",
        "province": "พิษณุโลก"
      }
    },
    {
      "type": "Feature",
      "geometry": {
        "type": "Point",
        "coordinates": [
          99.04833,
          19.93139
        ]
      },
      "properties": {
        "date": "09/22/2026",
        "metric": "min_temp",
        "value": 17.9,
        "station": "ดอยอ่างขาง",
        "province": "เชียงใหม่"
      }
    },
    {
      "type": "Feature",
      "geometry": {
        "type": "Point",
        "coordinates": [
          100.1,
          17.61667
        ]
      },
      "properties": {
        "date": "09/22/2026",
        "metric": "max_temp",
        "value": 35.9,
        "station": "อุตรดิตถ์",
        "province": "อุตรดิตถ์"
      }
    },
    {
      "type": "Feature",
      "geometry": {
        "type": "Point",
        "coordinates": [
          101.3693,
          14.05842
        ]
      },
      "properties": {
        "date": "09/22/2026",
        "metric": "max_rainfall_24hr",
        "value": 146.1,
        "station": "ปราจีนบุรี",
        "province": "ปราจีนบุรี"
      }
    },
    {
      "type": "Feature",
      "geometry": {
        "type": "Point",
        "coordinates": [
          99.04833,
          19.93139
        ]
      },
      "properties": {
        "date": "09/23/2026",
        "metric": "min_temp",
        "value": 18.1,
        "station": "ดอยอ่างขาง",
        "province": "เชียงใหม่"
      }
    },
    {
      "type": "Feature",
      "geometry": {
        "type": "Point",
        "coordinates": [
          98.9725,
          18.77111
        ]
      },
      "properties": {
        "date": "09/23/2026",
        "metric": "max_temp",
        "value": 35.6,
        "station": "เชียงใหม่",
        "province": "เชียงใหม่"
      }
    },
    {
      "type": "Feature",
      "geometry": {
        "type": "Point",
        "coordinates": [
          98.63639,
          14.74222
        ]
      },
      "properties": {
        "date": "09/23/2026",
        "metric": "max_rainfall_24hr",
        "value": 62.6,
        "station": "ทองผาภูมิ",
        "province": "กาญจนบุรี"
      }
    },
    {
      "type": "Feature",
      "geometry": {
        "type": "Point",
        "coordinates": [
          99.04833,
          19.93139
        ]
      },
      "properties": {
        "date": "09/24/2026",
        "metric": "min_temp",
        "value": 18.8,
        "station": "ดอยอ่างขาง",
        "province": "เชียงใหม่"
      }
    },
    {
      "type": "Feature",
      "geometry": {
        "type": "Point",
        "coordinates": [
          97.93333,
          18.16667
        ]
      },
      "properties": {
        "date": "09/24/2026",
        "metric": "max_temp",
        "value": 34.9,
        "station": "แม่สะเรียง",
        "province": "แม่ฮ่องสอน"
      }
    },
    {
      "type": "Feature",
      "geometry": {
        "type": "Point",
        "coordinates": [
          100.86944,
          12.92
        ]
      },
      "properties": {
        "date": "09/24/2026",
        "metric": "max_rainfall_24hr",
        "value": 171.8,
        "station": "พัทยา",
        "province": "ชลบุรี"
      }
    },
    {
      "type": "Feature",
      "geometry": {
        "type": "Point",
        "coordinates": [
          99.04833,
          19.93139
        ]
      },
      "properties": {
        "date": "09/25/2026",
        "metric": "min_temp",
        "value": 19.1,
        "station": "ดอยอ่างขาง",
        "province": "เชียงใหม่"
      }
    },
    {
      "type": "Feature",
      "geometry": {
        "type": "Point",
        "coordinates": [
          99.88139,
          19.96139
        ]
      },
      "properties": {
        "date": "09/25/2026",
        "metric": "max_temp",
        "value": 34.0,
        "station": "เชียงราย",
        "province": "เชียงราย"
      }
    },
    {
      "type": "Feature",
      "geometry": {
        "type": "Point",
        "coordinates": [
          101.45833,
          13.51556
        ]
      },
      "properties": {
        "date": "09/25/2026",
        "metric": "max_rainfall_24hr",
        "value": 209.2,
        "station": "ฉะเชิงเทรา",
        "province": "ฉะเชิงเทรา"
      }
    },
    {
      "type": "Feature",
      "geometry": {
        "type": "Point",
        "coordinates": [
          99.04833,
          19.93139
        ]
      },
      "properties": {
        "date": "09/26/2026",
        "metric": "min_temp",
        "value": 19.3,
        "station": "ดอยอ่างขาง",
        "province": "เชียงใหม่"
      }
    },
    {
      "type": "Feature",
      "geometry": {
        "type": "Point",
        "coordinates": [
          100.77778,
          18.77972
        ]
      },
      "properties": {
        "date": "09/26/2026",
        "metric": "max_temp",
        "value": 34.7,
        "station": "น่าน",
        "province": "น่าน"
      }
    },
    {
      "type": "Feature",
      "geometry": {
        "type": "Point",
        "coordinates": [
          101.38333,
          14.21667
        ]
      },
      "properties": {
        "date": "09/26/2026",
        "metric": "max_rainfall_24hr",
        "value": 288.8,
        "station": "นครนายก",
        "province": "นครนายก"
      }
    },
    {
      "type": "Feature",
      "geometry": {
        "type": "Point",
        "coordinates": [
          99.04833,
          19.93139
        ]
      },
      "properties": {
        "date": "09/27/2026",
        "metric": "min_temp",
        "value": 17.9,
        "station": "ดอยอ่างขาง",
        "province": "เชียงใหม่"
      }
    },
    {
      "type": "Feature",
      "geometry": {
        "type": "Point",
        "coordinates": [
          97.93333,
          18.16667
        ]
      },
      "properties": {
        "date": "09/27/2026",
        "metric": "max_temp",
        "value": 34.2,
        "station": "แม่สะเรียง",
        "province": "แม่ฮ่องสอน"
      }
    },
    {
      "type": "Feature",
      "geometry": {
        "type": "Point",
        "coordinates": [
          101.38333,
          14.21667
        ]
      },
      "properties": {
        "date": "09/27/2026",
        "metric": "max_rainfall_24hr",
        "value": 285.2,
        "station": "นครนายก",
        "province": "นครนายก"
      }
    },
    {
      "type": "Feature",
      "geometry": {
        "type": "Point",
        "coordinates": [
          99.04833,
          19.93139
        ]
      },
      "properties": {
        "date": "09/28/2026",
        "metric": "min_temp",
        "value": 17.2,
        "station": "ดอยอ่างขาง",
        "province": "เชียงใหม่"
      }
    },
    {
      "type": "Feature",
      "geometry": {
        "type": "Point",
        "coordinates": [
          100.08333,
          6.65
        ]
      },
      "properties": {
        "date": "09/28/2026",
        "metric": "max_temp",
        "value": 35.6,
        "station": "สตูล",
        "province": "สตูล"
      }
    },
    {
      "type": "Feature",
      "geometry": {
        "type": "Point",
        "coordinates": [
          98.63639,
          14.74222
        ]
      },
      "properties": {
        "date": "09/28/2026",
        "metric": "max_rainfall_24hr",
        "value": 169.2,
        "station": "ทองผาภูมิ",
        "province": "กาญจนบุรี"
      }
    },
    {
      "type": "Feature",
      "geometry": {
        "type": "Point",
        "coordinates": [
          99.04833,
          19.93139
        ]
      },
      "properties": {
        "date": "09/29/2026",
        "metric": "min_temp",
        "value": 17.0,
        "station": "ดอยอ่างขาง",
        "province": "เชียงใหม่"
      }
    },
    {
      "type": "Feature",
      "geometry": {
        "type": "Point",
        "coordinates": [
          102.88333,
          11.76667
        ]
      },
      "properties": {
        "date": "09/29/2026",
        "metric": "max_temp",
        "value": 32.9,
        "station": "ตราด",
        "province": "ตราด"
      }
    },
    {
      "type": "Feature",
      "geometry": {
        "type": "Point",
        "coordinates": [
          98.25222,
          8.68417
        ]
      },
      "properties": {
        "date": "09/29/2026",
        "metric": "max_rainfall_24hr",
        "value": 60.2,
        "station": "ตะกั่วป่า",
        "province": "พังงา"
      }
    },
    {
      "type": "Feature",
      "geometry": {
        "type": "Point",
        "coordinates": [
          99.04833,
          19.93139
        ]
      },
      "properties": {
        "date": "09/30/2026",
        "metric": "min_temp",
        "value": 16.2,
        "station": "ดอยอ่างขาง",
        "province": "เชียงใหม่"
      }
    },
    {
      "type": "Feature",
      "geometry": {
        "type": "Point",
        "coordinates": [
          100.60611,
          13.66639
        ]
      },
      "properties": {
        "date": "09/30/2026",
        "metric": "max_temp",
        "value": 35.3,
        "station": "กรุงเทพฯ บางนา สกษ.",
        "province": "กรุงเทพมหานคร"
      }
    },
    {
      "type": "Feature",
      "geometry": {
        "type": "Point",
        "coordinates": [
          98.25222,
          8.68417
        ]
      },
      "properties": {
        "date": "09/30/2026",
        "metric": "max_rainfall_24hr",
        "value": 60.2,
        "station": "ตะกั่วป่า",
        "province": "พังงา"
      }
    },
    {
      "type": "Feature",
      "geometry": {
        "type": "Point",
        "coordinates": [
          99.04833,
          19.93139
        ]
      },
      "properties": {
        "date": "10/01/2026",
        "metric": "min_temp",
        "value": 16.7,
        "station": "ดอยอ่างขาง",
        "province": "เชียงใหม่"
      }
    },
    {
      "type": "Feature",
      "geometry": {
        "type": "Point",
        "coordinates": [
          104.061,
          17.12503
        ]
      },
      "properties": {
        "date": "10/01/2026",
        "metric": "max_temp",
        "value": 35.0,
        "station": "สกลนคร สกษ.",
        "province": "สกลนคร"
      }
    },
    {
      "type": "Feature",
      "geometry": {
        "type": "Point",
        "coordinates": [
          100.08333,
          6.65
        ]
      },
      "properties": {
        "date": "10/01/2026",
        "metric": "max_rainfall_24hr",
        "value": 55.0,
        "station": "สตูล",
        "province": "สตูล"
      }
    },
    {
      "type": "Feature",
      "geometry": {
        "type": "Point",
        "coordinates": [
          99.04833,
          19.93139
        ]
      },
      "properties": {
        "date": "10/02/2026",
        "metric": "min_temp",
        "value": 18.2,
        "station": "ดอยอ่างขาง",
        "province": "เชียงใหม่"
      }
    },
    {
      "type": "Feature",
      "geometry": {
        "type": "Point",
        "coordinates": [
          99.14333,
          16.87833
        ]
      },
      "properties": {
        "date": "10/02/2026",
        "metric": "max_temp",
        "value": 38.2,
        "station": "ตาก",
        "province": "ตาก"
      }
    },
    {
      "type": "Feature",
      "geometry": {
        "type": "Point",
        "coordinates": [
          99.63333,
          9.1
        ]
      },
      "properties": {
        "date": "10/02/2026",
        "metric": "max_rainfall_24hr",
        "value": 53.2,
        "station": "สุราษฎร์ธานี สกษ.",
        "province": "สุราษฎร์ธานี"
      }
    },
    {
      "type": "Feature",
      "geometry": {
        "type": "Point",
        "coordinates": [
          99.04833,
          19.93139
        ]
      },
      "properties": {
        "date": "10/03/2026",
        "metric": "min_temp",
        "value": 18.9,
        "station": "ดอยอ่างขาง",
        "province": "เชียงใหม่"
      }
    },
    {
      "type": "Feature",
      "geometry": {
        "type": "Point",
        "coordinates": [
          99.24475,
          17.63661
        ]
      },
      "properties": {
        "date": "10/03/2026",
        "metric": "max_temp",
        "value": 36.9,
        "station": "เถิน",
        "province": "ลำปาง"
      }
    },
    {
      "type": "Feature",
      "geometry": {
        "type": "Point",
        "coordinates": [
          102.74728,
          17.86511
        ]
      },
      "properties": {
        "date": "10/03/2026",
        "metric": "max_rainfall_24hr",
        "value": 70.3,
        "station": "หนองคาย",
        "province": "หนองคาย"
      }
    },
    {
      "type": "Feature",
      "geometry": {
        "type": "Point",
        "coordinates": [
          99.04833,
          19.93139
        ]
      },
      "properties": {
        "date": "10/04/2026",
        "metric": "min_temp",
        "value": 19.4,
        "station": "ดอยอ่างขาง",
        "province": "เชียงใหม่"
      }
    },
    {
      "type": "Feature",
      "geometry": {
        "type": "Point",
        "coordinates": [
          99.14333,
          16.87833
        ]
      },
      "properties": {
        "date": "10/04/2026",
        "metric": "max_temp",
        "value": 37.2,
        "station": "ตาก",
        "province": "ตาก"
      }
    },
    {
      "type": "Feature",
      "geometry": {
        "type": "Point",
        "coordinates": [
          102.74728,
          17.86511
        ]
      },
      "properties": {
        "date": "10/04/2026",
        "metric": "max_rainfall_24hr",
        "value": 70.3,
        "station": "หนองคาย",
        "province": "หนองคาย"
      }
    },
    {
      "type": "Feature",
      "geometry": {
        "type": "Point",
        "coordinates": [
          99.04833,
          19.93139
        ]
      },
      "properties": {
        "date": "10/05/2026",
        "metric": "min_temp",
        "value": 17.0,
        "station": "ดอยอ่างขาง",
        "province": "เชียงใหม่"
      }
    },
    {
      "type": "Feature",
      "geometry": {
        "type": "Point",
        "coordinates": [
          100.05,
          9.46667
        ]
      },
      "properties": {
        "date": "10/05/2026",
        "metric": "max_temp",
        "value": 33.4,
        "station": "เกาะสมุย",
        "province": "สุราษฎร์ธานี"
      }
    },
    {
      "type": "Feature",
      "geometry": {
        "type": "Point",
        "coordinates": [
          104.61805,
          15.90375
        ]
      },
      "properties": {
        "date": "10/05/2026",
        "metric": "max_rainfall_24hr",
        "value": 151.0,
        "station": "อำนาจเจริญ",
        "province": "อำนาจเจริญ"
      }
    },
    {
      "type": "Feature",
      "geometry": {
        "type": "Point",
        "coordinates": [
          99.04833,
          19.93139
        ]
      },
      "properties": {
        "date": "10/06/2026",
        "metric": "min_temp",
        "value": 16.1,
        "station": "ดอยอ่างขาง",
        "province": "เชียงใหม่"
      }
    },
    {
      "type": "Feature",
      "geometry": {
        "type": "Point",
        "coordinates": [
          98.61667,
          9.98333
        ]
      },
      "properties": {
        "date": "10/06/2026",
        "metric": "max_temp",
        "value": 32.5,
        "station": "ระนอง",
        "province": "ระนอง"
      }
    },
    {
      "type": "Feature",
      "geometry": {
        "type": "Point",
        "coordinates": [
          99.79239,
          13.48931
        ]
      },
      "properties": {
        "date": "10/06/2026",
        "metric": "max_rainfall_24hr",
        "value": 72.6,
        "station": "ราชบุรี",
        "province": "ราชบุรี"
      }
    },
    {
      "type": "Feature",
      "geometry": {
        "type": "Point",
        "coordinates": [
          99.04833,
          19.93139
        ]
      },
      "properties": {
        "date": "10/07/2026",
        "metric": "min_temp",
        "value": 15.8,
        "station": "ดอยอ่างขาง",
        "province": "เชียงใหม่"
      }
    },
    {
      "type": "Feature",
      "geometry": {
        "type": "Point",
        "coordinates": [
          99.52697,
          16.48681
        ]
      },
      "properties": {
        "date": "10/07/2026",
        "metric": "max_temp",
        "value": 35.5,
        "station": "กำแพงเพชร",
        "province": "กำแพงเพชร"
      }
    },
    {
      "type": "Feature",
      "geometry": {
        "type": "Point",
        "coordinates": [
          98.61667,
          9.98333
        ]
      },
      "properties": {
        "date": "10/07/2026",
        "metric": "max_rainfall_24hr",
        "value": 129.4,
        "station": "ระนอง",
        "province": "ระนอง"
      }
    },
    {
      "type": "Feature",
      "geometry": {
        "type": "Point",
        "coordinates": [
          99.04833,
          19.93139
        ]
      },
      "properties": {
        "date": "10/08/2026",
        "metric": "min_temp",
        "value": 17.4,
        "station": "ดอยอ่างขาง",
        "province": "เชียงใหม่"
      }
    },
    {
      "type": "Feature",
      "geometry": {
        "type": "Point",
        "coordinates": [
          100.98333,
          13.36667
        ]
      },
      "properties": {
        "date": "10/08/2026",
        "metric": "max_temp",
        "value": 28.3,
        "station": "ชลบุรี",
        "province": "ชลบุรี"
      }
    },
    {
      "type": "Feature",
      "geometry": {
        "type": "Point",
        "coordinates": [
          101.28333,
          6.51667
        ]
      },
      "properties": {
        "date": "10/08/2026",
        "metric": "max_rainfall_24hr",
        "value": 67.4,
        "station": "ยะลา สกษ.",
        "province": "ยะลา"
      }
    }
  ]
}